[{"OBJECT_NAME":"STARLINK-11744 [DTC]","OBJECT_ID":"2025-127L","EPOCH":"2025-07-30T06:00:02.000160","MEAN_MOTION":15.77833453,"ECCENTRICITY":0.0001975,"INCLINATION":43.0029,"RA_OF_ASC_NODE":345.9584,"ARG_OF_PERICENTER":269.0217,"MEAN_ANOMALY":13.0924,"EPHEMERIS_TYPE":0,"CLASSIFICATION_TYPE":"U","NORAD_CAT_ID":64380,"ELEMENT_SET_NO":999,"REV_AT_EPOCH":841,"BSTAR":0.00019133,"MEAN_MOTION_DOT":0.00032891,"MEAN_MOTION_DDOT":0},{"OBJECT_NAME":"STARLINK-11692 [DTC]","OBJECT_ID":"2025-127M","EPOCH":"2025-07-30T01:39:17.775936","MEAN_MOTION":15.77929138,"ECCENTRICITY":8.5e-5,"INCLINATION":42.9996,"RA_OF_ASC_NODE":346.9897,"ARG_OF_PERICENTER":312.5933,"MEAN_ANOMALY":47.4866,"EPHEMERIS_TYPE":0,"CLASSIFICATION_TYPE":"U","NORAD_CAT_ID":64381,"ELEMENT_SET_NO":999,"REV_AT_EPOCH":859,"BSTAR":0.0014268,"MEAN_MOTION_DOT":0.00256241,"MEAN_MOTION_DDOT":0},{"OBJECT_NAME":"STARLINK-11740 [DTC]","OBJECT_ID":"2025-127N","EPOCH":"2025-07-30T12:10:19.575264","MEAN_MOTION":15.77866405,"ECCENTRICITY":0.0001315,"INCLINATION":42.9987,"RA_OF_ASC_NODE":344.2516,"ARG_OF_PERICENTER":245.2484,"MEAN_ANOMALY":114.825,"EPHEMERIS_TYPE":0,"CLASSIFICATION_TYPE":"U","NORAD_CAT_ID":64382,"ELEMENT_SET_NO":999,"REV_AT_EPOCH":844,"BSTAR":0.0014358,"MEAN_MOTION_DOT":0.00257161,"MEAN_MOTION_DDOT":0},{"OBJECT_NAME":"STARLINK-34299","OBJECT_ID":"2025-127P","EPOCH":"2025-07-30T10:44:41.606592","MEAN_MOTION":15.27597469,"ECCENTRICITY":0.0001002,"INCLINATION":43.0004,"RA_OF_ASC_NODE":355.2719,"ARG_OF_PERICENTER":256.5494,"MEAN_ANOMALY":103.5246,"EPHEMERIS_TYPE":0,"CLASSIFICATION_TYPE":"U","NORAD_CAT_ID":64383,"ELEMENT_SET_NO":999,"REV_AT_EPOCH":843,"BSTAR":0.001297,"MEAN_MOTION_DOT":0.0003562,"MEAN_MOTION_DDOT":0},{"OBJECT_NAME":"STARLINK-34271","OBJECT_ID":"2025-127Q","EPOCH":"2025-07-30T02:37:14.159424","MEAN_MOTION":15.27589967,"ECCENTRICITY":6.38e-5,"INCLINATION":42.996,"RA_OF_ASC_NODE":357.0231,"ARG_OF_PERICENTER":347.5395,"MEAN_ANOMALY":12.544,"EPHEMERIS_TYPE":0,"CLASSIFICATION_TYPE":"U","NORAD_CAT_ID":64384,"ELEMENT_SET_NO":999,"REV_AT_EPOCH":843,"BSTAR":6.7207e-5,"MEAN_MOTION_DOT":1.589e-5,"MEAN_MOTION_DDOT":0},{"OBJECT_NAME":"STARLINK-34100","OBJECT_ID":"2025-127R","EPOCH":"2025-07-30T10:33:37.819584","MEAN_MOTION":15.28363603,"ECCENTRICITY":0.0002378,"INCLINATION":43.0027,"RA_OF_ASC_NODE":355.2109,"ARG_OF_PERICENTER":259.4282,"MEAN_ANOMALY":100.6302,"EPHEMERIS_TYPE":0,"CLASSIFICATION_TYPE":"U","NORAD_CAT_ID":64385,"ELEMENT_SET_NO":999,"REV_AT_EPOCH":843,"BSTAR":-0.00021903,"MEAN_MOTION_DOT":-6.433e-5,"MEAN_MOTION_DDOT":0},{"OBJECT_NAME":"STARLINK-34269","OBJECT_ID":"2025-127S","EPOCH":"2025-07-30T11:01:07.618080","MEAN_MOTION":15.27605124,"ECCENTRICITY":0.0001455,"INCLINATION":42.9981,"RA_OF_ASC_NODE":354.4882,"ARG_OF_PERICENTER":223.2953,"MEAN_ANOMALY":136.7785,"EPHEMERIS_TYPE":0,"CLASSIFICATION_TYPE":"U","NORAD_CAT_ID":64386,"ELEMENT_SET_NO":999,"REV_AT_EPOCH":849,"BSTAR":0.0012578,"MEAN_MOTION_DOT":0.00034539,"MEAN_MOTION_DDOT":0},{"OBJECT_NAME":"STARLINK-34351","OBJECT_ID":"2025-127T","EPOCH":"2025-07-30T10:59:16.614816","MEAN_MOTION":15.27599426,"ECCENTRICITY":0.0001537,"INCLINATION":42.9971,"RA_OF_ASC_NODE":354.4754,"ARG_OF_PERICENTER":261.6652,"MEAN_ANOMALY":98.4025,"EPHEMERIS_TYPE":0,"CLASSIFICATION_TYPE":"U","NORAD_CAT_ID":64387,"ELEMENT_SET_NO":999,"REV_AT_EPOCH":849,"BSTAR":0.0012318,"MEAN_MOTION_DOT":0.0003381,"MEAN_MOTION_DDOT":0},{"OBJECT_NAME":"STARLINK-34198","OBJECT_ID":"2025-127U","EPOCH":"2025-07-29T16:15:35.879040","MEAN_MOTION":15.28429523,"ECCENTRICITY":0.0001503,"INCLINATION":43.0008,"RA_OF_ASC_NODE":358.9428,"ARG_OF_PERICENTER":265.6568,"MEAN_ANOMALY":94.4112,"EPHEMERIS_TYPE":0,"CLASSIFICATION_TYPE":"U","NORAD_CAT_ID":64388,"ELEMENT_SET_NO":999,"REV_AT_EPOCH":836,"BSTAR":0.0012396,"MEAN_MOTION_DOT":0.0003491,"MEAN_MOTION_DDOT":0},{"OBJECT_NAME":"STARLINK-34279","OBJECT_ID":"2025-127V","EPOCH":"2025-07-30T10:53:56.496768","MEAN_MOTION":15.27584339,"ECCENTRICITY":9.24e-5,"INCLINATION":43.0011,"RA_OF_ASC_NODE":355.319,"ARG_OF_PERICENTER":232.894,"MEAN_ANOMALY":127.1827,"EPHEMERIS_TYPE":0,"CLASSIFICATION_TYPE":"U","NORAD_CAT_ID":64389,"ELEMENT_SET_NO":999,"REV_AT_EPOCH":848,"BSTAR":0.00075524,"MEAN_MOTION_DOT":0.00020581,"MEAN_MOTION_DDOT":0},{"OBJECT_NAME":"STARLINK-34292","OBJECT_ID":"2025-127W","EPOCH":"2025-07-30T02:31:42.040416","MEAN_MOTION":15.27598292,"ECCENTRICITY":0.0001903,"INCLINATION":42.9997,"RA_OF_ASC_NODE":356.9941,"ARG_OF_PERICENTER":271.6348,"MEAN_ANOMALY":88.4286,"EPHEMERIS_TYPE":0,"CLASSIFICATION_TYPE":"U","NORAD_CAT_ID":64390,"ELEMENT_SET_NO":999,"REV_AT_EPOCH":843,"BSTAR":0.00083404,"MEAN_MOTION_DOT":0.00022773,"MEAN_MOTION_DDOT":0},{"OBJECT_NAME":"STARLINK-34278","OBJECT_ID":"2025-127X","EPOCH":"2025-07-29T16:14:57.208992","MEAN_MOTION":15.27601652,"ECCENTRICITY":4.56e-5,"INCLINATION":42.9978,"RA_OF_ASC_NODE":358.9384,"ARG_OF_PERICENTER":243.4054,"MEAN_ANOMALY":116.6751,"EPHEMERIS_TYPE":0,"CLASSIFICATION_TYPE":"U","NORAD_CAT_ID":64391,"ELEMENT_SET_NO":999,"REV_AT_EPOCH":836,"BSTAR":0.000972,"MEAN_MOTION_DOT":0.00026599,"MEAN_MOTION_DDOT":0},{"OBJECT_NAME":"STARLINK-33802","OBJECT_ID":"2025-127Y","EPOCH":"2025-07-30T10:41:27.551328","MEAN_MOTION":15.2843262,"ECCENTRICITY":9.06e-5,"INCLINATION":42.9963,"RA_OF_ASC_NODE":355.2483,"ARG_OF_PERICENTER":197.7707,"MEAN_ANOMALY":162.3113,"EPHEMERIS_TYPE":0,"CLASSIFICATION_TYPE":"U","NORAD_CAT_ID":64392,"ELEMENT_SET_NO":999,"REV_AT_EPOCH":853,"BSTAR":0.00076776,"MEAN_MOTION_DOT":0.00021484,"MEAN_MOTION_DDOT":0},{"OBJECT_NAME":"STARLINK-34419","OBJECT_ID":"2025-129A","EPOCH":"2025-07-30T14:00:01.999872","MEAN_MOTION":15.36693927,"ECCENTRICITY":0.0003805,"INCLINATION":69.9986,"RA_OF_ASC_NODE":275.5151,"ARG_OF_PERICENTER":281.2434,"MEAN_ANOMALY":351.3872,"EPHEMERIS_TYPE":0,"CLASSIFICATION_TYPE":"U","NORAD_CAT_ID":64412,"ELEMENT_SET_NO":999,"REV_AT_EPOCH":798,"BSTAR":-0.053097,"MEAN_MOTION_DOT":-0.01727879,"MEAN_MOTION_DDOT":0},{"OBJECT_NAME":"STARLINK-34275","OBJECT_ID":"2025-129B","EPOCH":"2025-07-30T11:15:37.221984","MEAN_MOTION":15.41166333,"ECCENTRICITY":0.0002629,"INCLINATION":70.0007,"RA_OF_ASC_NODE":275.8314,"ARG_OF_PERICENTER":266.337,"MEAN_ANOMALY":93.751,"EPHEMERIS_TYPE":0,"CLASSIFICATION_TYPE":"U","NORAD_CAT_ID":64413,"ELEMENT_SET_NO":999,"REV_AT_EPOCH":797,"BSTAR":-0.0062674,"MEAN_MOTION_DOT":-0.00252477,"MEAN_MOTION_DDOT":0},{"OBJECT_NAME":"STARLINK-34225","OBJECT_ID":"2025-129C","EPOCH":"2025-07-30T14:00:01.999872","MEAN_MOTION":15.37541458,"ECCENTRICITY":0.0003347,"INCLINATION":69.9991,"RA_OF_ASC_NODE":275.6153,"ARG_OF_PERICENTER":273.6191,"MEAN_ANOMALY":274.2804,"EPHEMERIS_TYPE":0,"CLASSIFICATION_TYPE":"U","NORAD_CAT_ID":64414,"ELEMENT_SET_NO":999,"REV_AT_EPOCH":798,"BSTAR":-0.050271,"MEAN_MOTION_DOT":-0.01685558,"MEAN_MOTION_DDOT":0}]
