STARLINK-11744 [DTC]    
1 64380U 25127L   25211.25002315  .00032891  00000+0  19133-3 0  9999
2 64380  43.0029 345.9584 0001975 269.0217  13.0924 15.77833453  8416
STARLINK-11692 [DTC]    
1 64381U 25127M   25211.06895574  .00256241  00000+0  14268-2 0  9996
2 64381  42.9996 346.9897 0000850 312.5933  47.4866 15.77929138  8597
STARLINK-11740 [DTC]    
1 64382U 25127N   25211.50717101  .00257161  00000+0  14358-2 0  9997
2 64382  42.9987 344.2516 0001315 245.2484 114.8250 15.77866405  8444
STARLINK-34299          
1 64383U 25127P   25211.44770378  .00035620  00000+0  12970-2 0  9998
2 64383  43.0004 355.2719 0001002 256.5494 103.5246 15.27597469  8438
STARLINK-34271          
1 64384U 25127Q   25211.10919166  .00001589  00000+0  67207-4 0  9994
2 64384  42.9960 357.0231 0000638 347.5395  12.5440 15.27589967  8431
STARLINK-34100          
1 64385U 25127R   25211.44002106 -.00006433  00000+0 -21903-3 0  9996
2 64385  43.0027 355.2109 0002378 259.4282 100.6302 15.28363603  8435
STARLINK-34269          
1 64386U 25127S   25211.45911595  .00034539  00000+0  12578-2 0  9992
2 64386  42.9981 354.4882 0001455 223.2953 136.7785 15.27605124  8498
STARLINK-34351          
1 64387U 25127T   25211.45783119  .00033810  00000+0  12318-2 0  9995
2 64387  42.9971 354.4754 0001537 261.6652  98.4025 15.27599426  8497
STARLINK-34198          
1 64388U 25127U   25210.67749860  .00034910  00000+0  12396-2 0  9992
2 64388  43.0008 358.9428 0001503 265.6568  94.4112 15.28429523  8361
STARLINK-34279          
1 64389U 25127V   25211.45412612  .00020581  00000+0  75524-3 0  9994
2 64389  43.0011 355.3190 0000924 232.8940 127.1827 15.27584339  8485
STARLINK-34292          
1 64390U 25127W   25211.10534769  .00022773  00000+0  83404-3 0  9997
2 64390  42.9997 356.9941 0001903 271.6348  88.4286 15.27598292  8436
STARLINK-34278          
1 64391U 25127X   25210.67705103  .00026599  00000+0  97200-3 0  9990
2 64391  42.9978 358.9384 0000456 243.4054 116.6751 15.27601652  8360
STARLINK-33802          
1 64392U 25127Y   25211.44545777  .00021484  00000+0  76776-3 0  9999
2 64392  42.9963 355.2483 0000906 197.7707 162.3113 15.28432620  8538
STARLINK-34419          
1 64412U 25129A   25211.58335648 -.01727879  00000+0 -53097-1 0  9996
2 64412  69.9986 275.5151 0003805 281.2434 351.3872 15.36693927  7986
STARLINK-34275          
1 64413U 25129B   25211.46918081 -.00252477  00000+0 -62674-2 0  9990
2 64413  70.0007 275.8314 0002629 266.3370  93.7510 15.41166333  7971
STARLINK-34225          
1 64414U 25129C   25211.58335648 -.01685558  00000+0 -50271-1 0  9996
2 64414  69.9991 275.6153 0003347 273.6191 274.2804 15.37541458  7983
